ORBCOMM FM20            
1 25416U 98046D   25307.54617176  .00001080  00000+0  40423-3 0  9993
2 25416  44.9939 241.1603 0002443 309.9239  50.1394 14.37532948424315
ORBCOMM FM16            
1 25417U 98046E   25307.92770323  .00001598  00000+0  55440-3 0  9999
2 25417  44.9932 229.0362 0005642 297.5361  62.4914 14.39360910424389
ORBCOMM FM15            
1 25418U 98046F   25307.52236818  .00001403  00000+0  49622-3 0  9992
2 25418  44.9966 236.5295 0005449 295.9766  64.0521 14.38986537424314
ORBCOMM FM14            
1 25419U 98046G   25307.85079172  .00001431  00000+0  50100-3 0  9991
2 25419  44.9947 232.7894 0004173 297.6286  62.4138 14.39390748424338
ORBCOMM FM13            
1 25420U 98046H   25307.53377435  .00001274  00000+0  46341-3 0  9998
2 25420  44.9971 243.6666 0006035 274.8995  85.1164 14.38049569423294
ORBCOMM FM21            
1 25475U 98053A   25307.78225139  .00001011  00000+0  38027-3 0  9997
2 25475  45.0093 328.2806 0003300 245.5272 114.5233 14.37667228417331
ORBCOMM FM22            
1 25476U 98053B   25307.78387094  .00001379  00000+0  49009-3 0  9996
2 25476  45.0082 321.9581 0004691 234.7544 125.2866 14.38810474417375
ORBCOMM FM23            
1 25477U 98053C   25307.76367915  .00001095  00000+0  40620-3 0  9990
2 25477  45.0091 330.2783 0004008 233.7965 126.2513 14.37889343417483
